CCSDS_OMM_VERS = 2.0
CREATION_DATE  = 
ORIGINATOR     = 

OBJECT_NAME    = IDEFIX & ARIANE 42P R/B
OBJECT_ID      = 2002-021B
CENTER_NAME    = EARTH
REF_FRAME      = TEME
TIME_SYSTEM    = UTC
MEAN_ELEMENT_THEORY = SGP/SGP4

EPOCH          = 2025-12-06T20:23:16.622016
MEAN_MOTION    = 14.30943783
ECCENTRICITY   = .00128978
INCLINATION    = 98.5777
RA_OF_ASC_NODE = 275.6171
ARG_OF_PERICENTER = 99.4787
MEAN_ANOMALY   = 260.7855

EPHEMERIS_TYPE = 0
CLASSIFICATION_TYPE = U
NORAD_CAT_ID   = 27422
ELEMENT_SET_NO = 999
REV_AT_EPOCH   = 23074
BSTAR          = .25403224E-3
MEAN_MOTION_DOT = .625E-5
MEAN_MOTION_DDOT = 0

CCSDS_OMM_VERS = 2.0
CREATION_DATE  = 
ORIGINATOR     = 

OBJECT_NAME    = AQUA
OBJECT_ID      = 2002-022A
CENTER_NAME    = EARTH
REF_FRAME      = TEME
TIME_SYSTEM    = UTC
MEAN_ELEMENT_THEORY = SGP/SGP4

EPOCH          = 2025-12-06T22:38:08.413152
MEAN_MOTION    = 14.61788081
ECCENTRICITY   = .00009064
INCLINATION    = 98.4030
RA_OF_ASC_NODE = 301.7279
ARG_OF_PERICENTER = 113.3410
MEAN_ANOMALY   = 325.9574

EPHEMERIS_TYPE = 0
CLASSIFICATION_TYPE = U
NORAD_CAT_ID   = 27424
ELEMENT_SET_NO = 999
REV_AT_EPOCH   = 25518
BSTAR          = .43242878E-3
MEAN_MOTION_DOT = .2109E-4
MEAN_MOTION_DDOT = 0

CCSDS_OMM_VERS = 2.0
CREATION_DATE  = 
ORIGINATOR     = 

OBJECT_NAME    = CZ-4B R/B
OBJECT_ID      = 2002-024C
CENTER_NAME    = EARTH
REF_FRAME      = TEME
TIME_SYSTEM    = UTC
MEAN_ELEMENT_THEORY = SGP/SGP4

EPOCH          = 2025-12-06T23:42:46.569600
MEAN_MOTION    = 14.14525902
ECCENTRICITY   = .00491892
INCLINATION    = 98.9005
RA_OF_ASC_NODE = 29.7795
ARG_OF_PERICENTER = 286.5791
MEAN_ANOMALY   = 140.7533

EPHEMERIS_TYPE = 0
CLASSIFICATION_TYPE = U
NORAD_CAT_ID   = 27432
ELEMENT_SET_NO = 999
REV_AT_EPOCH   = 21613
BSTAR          = .89112264E-4
MEAN_MOTION_DOT = .128E-5
MEAN_MOTION_DDOT = 0

CCSDS_OMM_VERS = 2.0
CREATION_DATE  = 
ORIGINATOR     = 

OBJECT_NAME    = MIDORI II (ADEOS-II)
OBJECT_ID      = 2002-056A
CENTER_NAME    = EARTH
REF_FRAME      = TEME
TIME_SYSTEM    = UTC
MEAN_ELEMENT_THEORY = SGP/SGP4

EPOCH          = 2025-12-06T21:42:44.382240
MEAN_MOTION    = 14.29199646
ECCENTRICITY   = .00001449
INCLINATION    = 98.7628
RA_OF_ASC_NODE = 293.8306
ARG_OF_PERICENTER = 8.8154
MEAN_ANOMALY   = 351.3029

EPHEMERIS_TYPE = 0
CLASSIFICATION_TYPE = U
NORAD_CAT_ID   = 27597
ELEMENT_SET_NO = 999
REV_AT_EPOCH   = 19704
BSTAR          = .2265717E-3
MEAN_MOTION_DOT = .53E-5
MEAN_MOTION_DDOT = 0

CCSDS_OMM_VERS = 2.0
CREATION_DATE  = 
ORIGINATOR     = 

OBJECT_NAME    = H-2A R/B
OBJECT_ID      = 2002-056E
CENTER_NAME    = EARTH
REF_FRAME      = TEME
TIME_SYSTEM    = UTC
MEAN_ELEMENT_THEORY = SGP/SGP4

EPOCH          = 2025-12-06T21:17:57.520320
MEAN_MOTION    = 14.33669044
ECCENTRICITY   = .00714871
INCLINATION    = 98.3055
RA_OF_ASC_NODE = 299.8776
ARG_OF_PERICENTER = 78.3070
MEAN_ANOMALY   = 340.1421

EPHEMERIS_TYPE = 0
CLASSIFICATION_TYPE = U
NORAD_CAT_ID   = 27601
ELEMENT_SET_NO = 999
REV_AT_EPOCH   = 20081
BSTAR          = .24548331E-3
MEAN_MOTION_DOT = .66E-5
MEAN_MOTION_DDOT = 0

CCSDS_OMM_VERS = 2.0
CREATION_DATE  = 
ORIGINATOR     = 

OBJECT_NAME    = CZ-4B R/B
OBJECT_ID      = 2003-049C
CENTER_NAME    = EARTH
REF_FRAME      = TEME
TIME_SYSTEM    = UTC
MEAN_ELEMENT_THEORY = SGP/SGP4

EPOCH          = 2025-12-06T22:56:56.333184
MEAN_MOTION    = 14.54901238
ECCENTRICITY   = .00487182
INCLINATION    = 98.6783
RA_OF_ASC_NODE = 327.3018
ARG_OF_PERICENTER = 153.5213
MEAN_ANOMALY   = 206.8488

EPHEMERIS_TYPE = 0
CLASSIFICATION_TYPE = U
NORAD_CAT_ID   = 28059
ELEMENT_SET_NO = 999
REV_AT_EPOCH   = 17311
BSTAR          = .17359148E-3
MEAN_MOTION_DOT = .707E-5
MEAN_MOTION_DDOT = 0

CCSDS_OMM_VERS = 2.0
CREATION_DATE  = 
ORIGINATOR     = 

OBJECT_NAME    = CZ-2C R/B
OBJECT_ID      = 2004-012C
CENTER_NAME    = EARTH
REF_FRAME      = TEME
TIME_SYSTEM    = UTC
MEAN_ELEMENT_THEORY = SGP/SGP4

EPOCH          = 2025-12-06T22:46:14.569536
MEAN_MOTION    = 15.54950486
ECCENTRICITY   = .0016714
INCLINATION    = 97.7427
RA_OF_ASC_NODE = 33.0936
ARG_OF_PERICENTER = 292.8683
MEAN_ANOMALY   = 67.0805

EPHEMERIS_TYPE = 0
CLASSIFICATION_TYPE = U
NORAD_CAT_ID   = 28222
ELEMENT_SET_NO = 999
REV_AT_EPOCH   = 18982
BSTAR          = .71855755E-3
MEAN_MOTION_DOT = .48488E-3
MEAN_MOTION_DDOT = 0

CCSDS_OMM_VERS = 2.0
CREATION_DATE  = 
ORIGINATOR     = 

OBJECT_NAME    = SL-16 R/B
OBJECT_ID      = 2004-021B
CENTER_NAME    = EARTH
REF_FRAME      = TEME
TIME_SYSTEM    = UTC
MEAN_ELEMENT_THEORY = SGP/SGP4

EPOCH          = 2025-12-06T16:21:29.729376
MEAN_MOTION    = 14.14582233
ECCENTRICITY   = .00056273
INCLINATION    = 71.0022
RA_OF_ASC_NODE = 67.6780
ARG_OF_PERICENTER = 209.1025
MEAN_ANOMALY   = 150.9784

EPHEMERIS_TYPE = 0
CLASSIFICATION_TYPE = U
NORAD_CAT_ID   = 28353
ELEMENT_SET_NO = 999
REV_AT_EPOCH   = 10968
BSTAR          = -.4297848E-4
MEAN_MOTION_DOT = -.13E-5
MEAN_MOTION_DDOT = 0

CCSDS_OMM_VERS = 2.0
CREATION_DATE  = 
ORIGINATOR     = 

OBJECT_NAME    = CZ-4B R/B
OBJECT_ID      = 2004-035C
CENTER_NAME    = EARTH
REF_FRAME      = TEME
TIME_SYSTEM    = UTC
MEAN_ELEMENT_THEORY = SGP/SGP4

EPOCH          = 2025-12-06T19:06:01.572192
MEAN_MOTION    = 15.27227129
ECCENTRICITY   = .00318907
INCLINATION    = 97.3608
RA_OF_ASC_NODE = 11.2194
ARG_OF_PERICENTER = 299.6214
MEAN_ANOMALY   = 60.1850

EPHEMERIS_TYPE = 0
CLASSIFICATION_TYPE = U
NORAD_CAT_ID   = 28415
ELEMENT_SET_NO = 999
REV_AT_EPOCH   = 16572
BSTAR          = .46349663E-3
MEAN_MOTION_DOT = .12485E-3
MEAN_MOTION_DDOT = 0

CCSDS_OMM_VERS = 2.0
CREATION_DATE  = 
ORIGINATOR     = 

OBJECT_NAME    = CZ-2C R/B
OBJECT_ID      = 2004-046B
CENTER_NAME    = EARTH
REF_FRAME      = TEME
TIME_SYSTEM    = UTC
MEAN_ELEMENT_THEORY = SGP/SGP4

EPOCH          = 2025-12-06T18:55:18.509952
MEAN_MOTION    = 14.26936378
ECCENTRICITY   = .01406683
INCLINATION    = 98.1986
RA_OF_ASC_NODE = 256.5364
ARG_OF_PERICENTER = 69.7658
MEAN_ANOMALY   = 291.8585

EPHEMERIS_TYPE = 0
CLASSIFICATION_TYPE = U
NORAD_CAT_ID   = 28480
ELEMENT_SET_NO = 999
REV_AT_EPOCH   = 9525
BSTAR          = .14310649E-3
MEAN_MOTION_DOT = .346E-5
MEAN_MOTION_DDOT = 0

CCSDS_OMM_VERS = 2.0
CREATION_DATE  = 
ORIGINATOR     = 

OBJECT_NAME    = ARIANE 5 R/B
OBJECT_ID      = 2004-049H
CENTER_NAME    = EARTH
REF_FRAME      = TEME
TIME_SYSTEM    = UTC
MEAN_ELEMENT_THEORY = SGP/SGP4

EPOCH          = 2025-12-06T22:12:17.743968
MEAN_MOTION    = 14.84990891
ECCENTRICITY   = .0083423
INCLINATION    = 98.2522
RA_OF_ASC_NODE = 140.9980
ARG_OF_PERICENTER = 292.0606
MEAN_ANOMALY   = 67.1764

EPHEMERIS_TYPE = 0
CLASSIFICATION_TYPE = U
NORAD_CAT_ID   = 28499
ELEMENT_SET_NO = 999
REV_AT_EPOCH   = 13202
BSTAR          = .20863627E-3
MEAN_MOTION_DOT = .1827E-4
MEAN_MOTION_DDOT = 0

CCSDS_OMM_VERS = 2.0
CREATION_DATE  = 
ORIGINATOR     = 

OBJECT_NAME    = CZ-2D R/B
OBJECT_ID      = 2005-024B
CENTER_NAME    = EARTH
REF_FRAME      = TEME
TIME_SYSTEM    = UTC
MEAN_ELEMENT_THEORY = SGP/SGP4

EPOCH          = 2025-12-06T22:08:44.195136
MEAN_MOTION    = 15.52742337
ECCENTRICITY   = .00063986
INCLINATION    = 97.3629
RA_OF_ASC_NODE = 348.2187
ARG_OF_PERICENTER = 25.8382
MEAN_ANOMALY   = 334.3189

EPHEMERIS_TYPE = 0
CLASSIFICATION_TYPE = U
NORAD_CAT_ID   = 28738
ELEMENT_SET_NO = 999
REV_AT_EPOCH   = 12535
BSTAR          = .55487224E-3
MEAN_MOTION_DOT = .34305E-3
MEAN_MOTION_DDOT = 0

