IDEFIX & ARIANE 42P R/B 
1 27422U 02021B   25340.84949794  .00000625  00000+0  25403-3 0  9999
2 27422  98.5777 275.6171 0012897  99.4787 260.7855 14.30943783230743
AQUA                    
1 27424U 02022A   25340.94315293  .00002109  00000+0  43243-3 0  9995
2 27424  98.4030 301.7279 0000906 113.3410 325.9574 14.61788081255182
CZ-4B R/B               
1 27432U 02024C   25340.98803900  .00000128  00000+0  89112-4 0  9992
2 27432  98.9005  29.7795 0049189 286.5791 140.7533 14.14525902216138
MIDORI II (ADEOS-II)    
1 27597U 02056A   25340.90468035  .00000530  00000+0  22657-3 0  9994
2 27597  98.7628 293.8306 0000144   8.8154 351.3029 14.29199646197043
H-2A R/B                
1 27601U 02056E   25340.88747130  .00000660  00000+0  24548-3 0  9998
2 27601  98.3055 299.8776 0071487  78.3070 340.1421 14.33669044200814
CZ-4B R/B               
1 28059U 03049C   25340.95620756  .00000707  00000+0  17359-3 0  9995
2 28059  98.6783 327.3018 0048718 153.5213 206.8488 14.54901238173115
CZ-2C R/B               
1 28222U 04012C   25340.94877974  .00048488  00000+0  71856-3 0  9993
2 28222  97.7427  33.0936 0016714 292.8683  67.0805 15.54950486189826
SL-16 R/B               
1 28353U 04021B   25340.68159409 -.00000130  00000+0 -42978-4 0  9993
2 28353  71.0022  67.6780 0005627 209.1025 150.9784 14.14582233109689
CZ-4B R/B               
1 28415U 04035C   25340.79585153  .00012485  00000+0  46350-3 0  9999
2 28415  97.3608  11.2194 0031890 299.6214  60.1850 15.27227129165726
CZ-2C R/B               
1 28480U 04046B   25340.78840868  .00000346  00000+0  14311-3 0  9994
2 28480  98.1986 256.5364 0140668  69.7658 291.8585 14.26936378 95250
ARIANE 5 R/B            
1 28499U 04049H   25340.92520537  .00001827  00000+0  20864-3 0  9996
2 28499  98.2522 140.9980 0083423 292.0606  67.1764 14.84990891132020
CZ-2D R/B               
1 28738U 05024B   25340.92273374  .00034305  00000+0  55487-3 0  9996
2 28738  97.3629 348.2187 0006398  25.8382 334.3189 15.52742337125359
